[{"OBJECT_NAME":"STARLINK-6277","OBJECT_ID":"2023-061AB","EPOCH":"2026-02-17T00:51:56.331360","MEAN_MOTION":15.02536659,"ECCENTRICITY":0.0001456,"INCLINATION":43.0033,"RA_OF_ASC_NODE":297.0585,"ARG_OF_PERICENTER":261.3762,"MEAN_ANOMALY":98.6916,"EPHEMERIS_TYPE":0,"CLASSIFICATION_TYPE":"U","NORAD_CAT_ID":56399,"ELEMENT_SET_NO":999,"REV_AT_EPOCH":15379,"BSTAR":-4.6844e-5,"MEAN_MOTION_DOT":-8.36e-6,"MEAN_MOTION_DDOT":0},{"OBJECT_NAME":"STARLINK-6267","OBJECT_ID":"2023-061AC","EPOCH":"2026-02-17T00:35:57.028704","MEAN_MOTION":15.02535681,"ECCENTRICITY":0.0001319,"INCLINATION":43.0047,"RA_OF_ASC_NODE":296.9697,"ARG_OF_PERICENTER":268.7741,"MEAN_ANOMALY":91.295,"EPHEMERIS_TYPE":0,"CLASSIFICATION_TYPE":"U","NORAD_CAT_ID":56400,"ELEMENT_SET_NO":999,"REV_AT_EPOCH":15379,"BSTAR":7.1691e-6,"MEAN_MOTION_DOT":-1.07e-6,"MEAN_MOTION_DDOT":0},{"OBJECT_NAME":"STARLINK-6256","OBJECT_ID":"2023-061AD","EPOCH":"2026-02-17T04:00:00.999936","MEAN_MOTION":15.7921162,"ECCENTRICITY":0.0010592,"INCLINATION":42.9964,"RA_OF_ASC_NODE":232.8419,"ARG_OF_PERICENTER":280.9761,"MEAN_ANOMALY":202.4912,"EPHEMERIS_TYPE":0,"CLASSIFICATION_TYPE":"U","NORAD_CAT_ID":56401,"ELEMENT_SET_NO":999,"REV_AT_EPOCH":595,"BSTAR":0.00052116,"MEAN_MOTION_DOT":0.00097353,"MEAN_MOTION_DDOT":0},{"OBJECT_NAME":"STARLINK-6284","OBJECT_ID":"2023-061AF","EPOCH":"2026-02-17T00:39:39.653856","MEAN_MOTION":15.93774276,"ECCENTRICITY":0.0001953,"INCLINATION":42.9956,"RA_OF_ASC_NODE":267.6692,"ARG_OF_PERICENTER":267.857,"MEAN_ANOMALY":92.2082,"EPHEMERIS_TYPE":0,"CLASSIFICATION_TYPE":"U","NORAD_CAT_ID":56403,"ELEMENT_SET_NO":999,"REV_AT_EPOCH":15413,"BSTAR":0.0026939,"MEAN_MOTION_DOT":0.01010459,"MEAN_MOTION_DDOT":0.00045744},{"OBJECT_NAME":"STARLINK-6287","OBJECT_ID":"2023-061AG","EPOCH":"2026-02-17T01:58:53.314464","MEAN_MOTION":15.02536474,"ECCENTRICITY":0.0001306,"INCLINATION":43.0047,"RA_OF_ASC_NODE":296.5439,"ARG_OF_PERICENTER":268.4853,"MEAN_ANOMALY":91.5839,"EPHEMERIS_TYPE":0,"CLASSIFICATION_TYPE":"U","NORAD_CAT_ID":56404,"ELEMENT_SET_NO":999,"REV_AT_EPOCH":15380,"BSTAR":8.8082e-5,"MEAN_MOTION_DOT":9.86e-6,"MEAN_MOTION_DDOT":0},{"OBJECT_NAME":"STARLINK-6285","OBJECT_ID":"2023-061AH","EPOCH":"2026-02-17T02:06:52.977888","MEAN_MOTION":15.02532403,"ECCENTRICITY":0.0001287,"INCLINATION":43.0038,"RA_OF_ASC_NODE":296.5884,"ARG_OF_PERICENTER":271.0981,"MEAN_ANOMALY":88.9714,"EPHEMERIS_TYPE":0,"CLASSIFICATION_TYPE":"U","NORAD_CAT_ID":56405,"ELEMENT_SET_NO":999,"REV_AT_EPOCH":15380,"BSTAR":4.6027e-5,"MEAN_MOTION_DOT":4.18e-6,"MEAN_MOTION_DDOT":0},{"OBJECT_NAME":"STARLINK-6283","OBJECT_ID":"2023-061AJ","EPOCH":"2026-02-16T22:34:38.758368","MEAN_MOTION":15.02548191,"ECCENTRICITY":0.0001765,"INCLINATION":43.0062,"RA_OF_ASC_NODE":297.1985,"ARG_OF_PERICENTER":268.9714,"MEAN_ANOMALY":91.0926,"EPHEMERIS_TYPE":0,"CLASSIFICATION_TYPE":"U","NORAD_CAT_ID":56406,"ELEMENT_SET_NO":999,"REV_AT_EPOCH":15378,"BSTAR":-0.00025181,"MEAN_MOTION_DOT":-3.605e-5,"MEAN_MOTION_DDOT":0},{"OBJECT_NAME":"STARLINK-6282","OBJECT_ID":"2023-061AK","EPOCH":"2026-02-17T02:02:05.111232","MEAN_MOTION":15.02538231,"ECCENTRICITY":0.000111,"INCLINATION":43.0033,"RA_OF_ASC_NODE":296.5613,"ARG_OF_PERICENTER":265.6843,"MEAN_ANOMALY":94.3873,"EPHEMERIS_TYPE":0,"CLASSIFICATION_TYPE":"U","NORAD_CAT_ID":56407,"ELEMENT_SET_NO":999,"REV_AT_EPOCH":15380,"BSTAR":8.6936e-6,"MEAN_MOTION_DOT":-8.6e-7,"MEAN_MOTION_DDOT":0},{"OBJECT_NAME":"STARLINK-6289","OBJECT_ID":"2023-061AL","EPOCH":"2026-02-17T01:34:54.742368","MEAN_MOTION":15.02540026,"ECCENTRICITY":0.0001114,"INCLINATION":43.0039,"RA_OF_ASC_NODE":296.4097,"ARG_OF_PERICENTER":272.8933,"MEAN_ANOMALY":87.1782,"EPHEMERIS_TYPE":0,"CLASSIFICATION_TYPE":"U","NORAD_CAT_ID":56408,"ELEMENT_SET_NO":999,"REV_AT_EPOCH":15380,"BSTAR":1.9122e-5,"MEAN_MOTION_DOT":5.5e-7,"MEAN_MOTION_DDOT":0},{"OBJECT_NAME":"STARLINK-6241","OBJECT_ID":"2023-061AM","EPOCH":"2026-02-17T00:18:22.222944","MEAN_MOTION":15.02533323,"ECCENTRICITY":0.0001112,"INCLINATION":43.0035,"RA_OF_ASC_NODE":296.8806,"ARG_OF_PERICENTER":276.5409,"MEAN_ANOMALY":83.5307,"EPHEMERIS_TYPE":0,"CLASSIFICATION_TYPE":"U","NORAD_CAT_ID":56409,"ELEMENT_SET_NO":999,"REV_AT_EPOCH":15379,"BSTAR":1.1646e-5,"MEAN_MOTION_DOT":-4.6e-7,"MEAN_MOTION_DDOT":0},{"OBJECT_NAME":"STARLINK-6281","OBJECT_ID":"2023-061AN","EPOCH":"2026-02-17T01:33:19.088928","MEAN_MOTION":15.02533246,"ECCENTRICITY":0.0001896,"INCLINATION":43.0062,"RA_OF_ASC_NODE":296.4088,"ARG_OF_PERICENTER":259.4676,"MEAN_ANOMALY":100.5953,"EPHEMERIS_TYPE":0,"CLASSIFICATION_TYPE":"U","NORAD_CAT_ID":56410,"ELEMENT_SET_NO":999,"REV_AT_EPOCH":15380,"BSTAR":-5.8946e-5,"MEAN_MOTION_DOT":-1.0e-5,"MEAN_MOTION_DDOT":0},{"OBJECT_NAME":"STARLINK-6279","OBJECT_ID":"2023-061AP","EPOCH":"2026-02-17T01:50:54.026016","MEAN_MOTION":15.02536802,"ECCENTRICITY":0.0001204,"INCLINATION":43.0046,"RA_OF_ASC_NODE":296.4974,"ARG_OF_PERICENTER":268.8061,"MEAN_ANOMALY":91.2643,"EPHEMERIS_TYPE":0,"CLASSIFICATION_TYPE":"U","NORAD_CAT_ID":56411,"ELEMENT_SET_NO":999,"REV_AT_EPOCH":15380,"BSTAR":1.9073e-7,"MEAN_MOTION_DOT":-2.01e-6,"MEAN_MOTION_DDOT":0},{"OBJECT_NAME":"STARLINK-6278","OBJECT_ID":"2023-061AQ","EPOCH":"2026-02-17T01:25:19.909344","MEAN_MOTION":15.0253543,"ECCENTRICITY":0.0001091,"INCLINATION":43.004,"RA_OF_ASC_NODE":296.3654,"ARG_OF_PERICENTER":273.5305,"MEAN_ANOMALY":86.5412,"EPHEMERIS_TYPE":0,"CLASSIFICATION_TYPE":"U","NORAD_CAT_ID":56412,"ELEMENT_SET_NO":999,"REV_AT_EPOCH":15380,"BSTAR":-2.2559e-7,"MEAN_MOTION_DOT":-2.07e-6,"MEAN_MOTION_DDOT":0},{"OBJECT_NAME":"STARLINK-6258","OBJECT_ID":"2023-061AR","EPOCH":"2026-02-17T01:38:06.794880","MEAN_MOTION":15.02536841,"ECCENTRICITY":0.0001322,"INCLINATION":43.0041,"RA_OF_ASC_NODE":296.4331,"ARG_OF_PERICENTER":262.2796,"MEAN_ANOMALY":97.7897,"EPHEMERIS_TYPE":0,"CLASSIFICATION_TYPE":"U","NORAD_CAT_ID":56413,"ELEMENT_SET_NO":999,"REV_AT_EPOCH":15380,"BSTAR":4.955e-5,"MEAN_MOTION_DOT":4.66e-6,"MEAN_MOTION_DDOT":0},{"OBJECT_NAME":"STARLINK-5136","OBJECT_ID":"2023-061AS","EPOCH":"2026-02-17T01:18:55.886400","MEAN_MOTION":15.02536444,"ECCENTRICITY":0.000107,"INCLINATION":43.0036,"RA_OF_ASC_NODE":296.3298,"ARG_OF_PERICENTER":271.6513,"MEAN_ANOMALY":88.4207,"EPHEMERIS_TYPE":0,"CLASSIFICATION_TYPE":"U","NORAD_CAT_ID":56414,"ELEMENT_SET_NO":999,"REV_AT_EPOCH":15380,"BSTAR":1.36e-5,"MEAN_MOTION_DOT":-2.0e-7,"MEAN_MOTION_DDOT":0},{"OBJECT_NAME":"STARLINK-6260","OBJECT_ID":"2023-061AU","EPOCH":"2026-02-17T00:55:32.206944","MEAN_MOTION":15.02521337,"ECCENTRICITY":8.03e-5,"INCLINATION":43.0027,"RA_OF_ASC_NODE":284.0686,"ARG_OF_PERICENTER":301.2582,"MEAN_ANOMALY":58.8182,"EPHEMERIS_TYPE":0,"CLASSIFICATION_TYPE":"U","NORAD_CAT_ID":56416,"ELEMENT_SET_NO":999,"REV_AT_EPOCH":15394,"BSTAR":-1.944e-5,"MEAN_MOTION_DOT":-4.66e-6,"MEAN_MOTION_DDOT":0},{"OBJECT_NAME":"STARLINK-6261","OBJECT_ID":"2023-061AV","EPOCH":"2026-02-17T01:20:32.174880","MEAN_MOTION":15.02533781,"ECCENTRICITY":0.0001283,"INCLINATION":43.0041,"RA_OF_ASC_NODE":296.3429,"ARG_OF_PERICENTER":263.2956,"MEAN_ANOMALY":96.774,"EPHEMERIS_TYPE":0,"CLASSIFICATION_TYPE":"U","NORAD_CAT_ID":56417,"ELEMENT_SET_NO":999,"REV_AT_EPOCH":15380,"BSTAR":4.011e-5,"MEAN_MOTION_DOT":3.38e-6,"MEAN_MOTION_DDOT":0},{"OBJECT_NAME":"STARLINK-5356","OBJECT_ID":"2023-061AW","EPOCH":"2026-02-17T00:36:19.673280","MEAN_MOTION":15.02530971,"ECCENTRICITY":8.29e-5,"INCLINATION":43.0036,"RA_OF_ASC_NODE":283.9643,"ARG_OF_PERICENTER":287.2037,"MEAN_ANOMALY":72.8715,"EPHEMERIS_TYPE":0,"CLASSIFICATION_TYPE":"U","NORAD_CAT_ID":56418,"ELEMENT_SET_NO":999,"REV_AT_EPOCH":15394,"BSTAR":-3.3608e-5,"MEAN_MOTION_DOT":-6.57e-6,"MEAN_MOTION_DDOT":0},{"OBJECT_NAME":"STARLINK-5350","OBJECT_ID":"2023-061AX","EPOCH":"2026-02-16T01:19:49.064736","MEAN_MOTION":15.02538244,"ECCENTRICITY":0.00012569,"INCLINATION":43.0042,"RA_OF_ASC_NODE":301.7359,"ARG_OF_PERICENTER":262.609,"MEAN_ANOMALY":97.4609,"EPHEMERIS_TYPE":0,"CLASSIFICATION_TYPE":"U","NORAD_CAT_ID":56419,"ELEMENT_SET_NO":999,"REV_AT_EPOCH":15365,"BSTAR":1.1649755e-5,"MEAN_MOTION_DOT":-4.6e-7,"MEAN_MOTION_DDOT":0},{"OBJECT_NAME":"STARLINK-6272","OBJECT_ID":"2023-061AY","EPOCH":"2026-02-17T00:31:31.439424","MEAN_MOTION":15.02537186,"ECCENTRICITY":0.0001315,"INCLINATION":43.0042,"RA_OF_ASC_NODE":283.9379,"ARG_OF_PERICENTER":268.5567,"MEAN_ANOMALY":91.5125,"EPHEMERIS_TYPE":0,"CLASSIFICATION_TYPE":"U","NORAD_CAT_ID":56420,"ELEMENT_SET_NO":999,"REV_AT_EPOCH":15394,"BSTAR":2.8966e-5,"MEAN_MOTION_DOT":1.88e-6,"MEAN_MOTION_DDOT":0},{"OBJECT_NAME":"STARLINK-6270","OBJECT_ID":"2023-061AZ","EPOCH":"2026-02-17T01:00:17.562816","MEAN_MOTION":15.02533984,"ECCENTRICITY":0.0001204,"INCLINATION":43.0059,"RA_OF_ASC_NODE":284.0834,"ARG_OF_PERICENTER":271.2653,"MEAN_ANOMALY":88.8051,"EPHEMERIS_TYPE":0,"CLASSIFICATION_TYPE":"U","NORAD_CAT_ID":56421,"ELEMENT_SET_NO":999,"REV_AT_EPOCH":15394,"BSTAR":1.1816e-5,"MEAN_MOTION_DOT":-4.4e-7,"MEAN_MOTION_DDOT":0},{"OBJECT_NAME":"STARLINK-6236","OBJECT_ID":"2023-061BA","EPOCH":"2026-02-17T00:21:56.164032","MEAN_MOTION":15.02534233,"ECCENTRICITY":0.0001257,"INCLINATION":43.0038,"RA_OF_ASC_NODE":283.8904,"ARG_OF_PERICENTER":267.4839,"MEAN_ANOMALY":92.5859,"EPHEMERIS_TYPE":0,"CLASSIFICATION_TYPE":"U","NORAD_CAT_ID":56422,"ELEMENT_SET_NO":999,"REV_AT_EPOCH":15394,"BSTAR":6.4893e-5,"MEAN_MOTION_DOT":6.73e-6,"MEAN_MOTION_DDOT":0},{"OBJECT_NAME":"STARLINK-6239","OBJECT_ID":"2023-061BB","EPOCH":"2026-02-17T02:02:27.862944","MEAN_MOTION":15.02531891,"ECCENTRICITY":0.0001125,"INCLINATION":43.004,"RA_OF_ASC_NODE":283.5512,"ARG_OF_PERICENTER":271.7613,"MEAN_ANOMALY":88.3101,"EPHEMERIS_TYPE":0,"CLASSIFICATION_TYPE":"U","NORAD_CAT_ID":56423,"ELEMENT_SET_NO":999,"REV_AT_EPOCH":15395,"BSTAR":-1.6799e-5,"MEAN_MOTION_DOT":-4.3e-6,"MEAN_MOTION_DDOT":0}]
